{
  "type": "FeatureCollection",
  "features": [
    {
      "type": "Feature",
      "properties": {
        "norad_id": 41581,
        "name": "INTELSAT 31 (IS-31)",
        "group": "intelsat",
        "lat": 0.026252646662297287,
        "lon": 48.35000747956611,
        "alt_km": 35793.67950834198,
        "timestamp": "2025-12-16T03:53:26.726761+00:00",
        "meta_object_name": "INTELSAT 31 (IS-31)",
        "meta_object_id": "2016-035A",
        "meta_epoch": "2025-12-14T23:14:19.767840",
        "meta_mean_motion": 1.00272368,
        "meta_eccentricity": 0.00019442,
        "meta_inclination": 0.0208,
        "meta_ra_of_asc_node": 270.2777,
        "meta_arg_of_pericenter": 298.2472,
        "meta_mean_anomaly": 128.886,
        "meta_ephemeris_type": 0,
        "meta_classification_type": "U",
        "meta_norad_cat_id": 41581,
        "meta_element_set_no": 999,
        "meta_rev_at_epoch": 3483,
        "meta_bstar": 0,
        "meta_mean_motion_dot": -1.31e-06,
        "meta_mean_motion_ddot": 0,
        "tle_line1": "1 41581U 16035A   25348.96828435 -.00000131  00000+0  00000+0 0  9995",
        "tle_line2": "2 41581   0.0208 270.2777 0001944 298.2472 128.8860  1.00272368 34835"
      },
      "geometry": {
        "type": "Point",
        "coordinates": [
          48.35000747956611,
          0.026252646662297287
        ]
      }
    },
    {
      "type": "Feature",
      "properties": {
        "norad_id": 41747,
        "name": "INTELSAT 36 (IS-36)",
        "group": "intelsat",
        "lat": -0.025567110842020204,
        "lon": -148.12007943124675,
        "alt_km": 35788.258256797184,
        "timestamp": "2025-12-16T03:53:26.726772+00:00",
        "meta_object_name": "INTELSAT 36 (IS-36)",
        "meta_object_id": "2016-053A",
        "meta_epoch": "2025-12-15T05:09:03.048768",
        "meta_mean_motion": 1.00270454,
        "meta_eccentricity": 0.00011093,
        "meta_inclination": 0.0109,
        "meta_ra_of_asc_node": 348.2534,
        "meta_arg_of_pericenter": 336.9444,
        "meta_mean_anomaly": 264.677,
        "meta_ephemeris_type": 0,
        "meta_classification_type": "U",
        "meta_norad_cat_id": 41747,
        "meta_element_set_no": 999,
        "meta_rev_at_epoch": 3410,
        "meta_bstar": 0,
        "meta_mean_motion_dot": -3e-08,
        "meta_mean_motion_ddot": 0,
        "tle_line1": "1 41747U 16053A   25349.21461862 -.00000003  00000+0  00000+0 0  9993",
        "tle_line2": "2 41747   0.0109 348.2534 0001109 336.9444 264.6770  1.00270454 34101"
      },
      "geometry": {
        "type": "Point",
        "coordinates": [
          -148.12007943124675,
          -0.025567110842020204
        ]
      }
    },
    {
      "type": "Feature",
      "properties": {
        "norad_id": 41945,
        "name": "INTELSAT 32E (IS-32E)",
        "group": "intelsat",
        "lat": 0.02693150504490653,
        "lon": 100.23324452589678,
        "alt_km": 35785.5830370333,
        "timestamp": "2025-12-16T03:53:26.726784+00:00",
        "meta_object_name": "INTELSAT 32E (IS-32E)",
        "meta_object_id": "2017-007B",
        "meta_epoch": "2025-12-15T04:37:21.084096",
        "meta_mean_motion": 1.0027185,
        "meta_eccentricity": 5.122e-05,
        "meta_inclination": 0.0326,
        "meta_ra_of_asc_node": 79.2856,
        "meta_arg_of_pericenter": 306.1943,
        "meta_mean_anomaly": 84.7803,
        "meta_ephemeris_type": 0,
        "meta_classification_type": "U",
        "meta_norad_cat_id": 41945,
        "meta_element_set_no": 999,
        "meta_rev_at_epoch": 3238,
        "meta_bstar": 0,
        "meta_mean_motion_dot": -2.48e-06,
        "meta_mean_motion_ddot": 0,
        "tle_line1": "1 41945U 17007B   25349.19260514 -.00000248  00000+0  00000+0 0  9992",
        "tle_line2": "2 41945   0.0326  79.2856 0000512 306.1943  84.7803  1.00271850 32387"
      },
      "geometry": {
        "type": "Point",
        "coordinates": [
          100.23324452589678,
          0.02693150504490653
        ]
      }
    },
    {
      "type": "Feature",
      "properties": {
        "norad_id": 42818,
        "name": "INTELSAT 35E (IS-35E)",
        "group": "intelsat",
        "lat": 0.016347885253343224,
        "lon": 108.91117353986253,
        "alt_km": 35793.28899087524,
        "timestamp": "2025-12-16T03:53:26.726796+00:00",
        "meta_object_name": "INTELSAT 35E (IS-35E)",
        "meta_object_id": "2017-041A",
        "meta_epoch": "2025-12-15T06:22:33.507840",
        "meta_mean_motion": 1.00272747,
        "meta_eccentricity": 0.00018666,
        "meta_inclination": 0.0008,
        "meta_ra_of_asc_node": 25.8947,
        "meta_arg_of_pericenter": 242.5603,
        "meta_mean_anomaly": 236.8671,
        "meta_ephemeris_type": 0,
        "meta_classification_type": "U",
        "meta_norad_cat_id": 42818,
        "meta_element_set_no": 999,
        "meta_rev_at_epoch": 3097,
        "meta_bstar": 0,
        "meta_mean_motion_dot": -2.17e-06,
        "meta_mean_motion_ddot": 0,
        "tle_line1": "1 42818U 17041A   25349.26566560 -.00000217  00000+0  00000+0 0  9994",
        "tle_line2": "2 42818   0.0008  25.8947 0001866 242.5603 236.8671  1.00272747 30973"
      },
      "geometry": {
        "type": "Point",
        "coordinates": [
          108.91117353986253,
          0.016347885253343224
        ]
      }
    },
    {
      "type": "Feature",
      "properties": {
        "norad_id": 42950,
        "name": "INTELSAT 37E (IS-37E)",
        "group": "intelsat",
        "lat": 0.017407224287073107,
        "lon": 125.38284575709673,
        "alt_km": 35794.58851943554,
        "timestamp": "2025-12-16T03:53:26.726808+00:00",
        "meta_object_name": "INTELSAT 37E (IS-37E)",
        "meta_object_id": "2017-059A",
        "meta_epoch": "2025-12-15T06:27:10.565856",
        "meta_mean_motion": 1.00271542,
        "meta_eccentricity": 0.00030866,
        "meta_inclination": 0.0186,
        "meta_ra_of_asc_node": 326.7729,
        "meta_arg_of_pericenter": 288.6194,
        "meta_mean_anomaly": 267.5824,
        "meta_ephemeris_type": 0,
        "meta_classification_type": "U",
        "meta_norad_cat_id": 42950,
        "meta_element_set_no": 999,
        "meta_rev_at_epoch": 3022,
        "meta_bstar": 0,
        "meta_mean_motion_dot": -1.2e-06,
        "meta_mean_motion_ddot": 0,
        "tle_line1": "1 42950U 17059A   25349.26887229 -.00000120  00000+0  00000+0 0  9991",
        "tle_line2": "2 42950   0.0186 326.7729 0003086 288.6194 267.5824  1.00271542 30221"
      },
      "geometry": {
        "type": "Point",
        "coordinates": [
          125.38284575709673,
          0.017407224287073107
        ]
      }
    },
    {
      "type": "Feature",
      "properties": {
        "norad_id": 43632,
        "name": "AZERSPACE 2 (IS-38)",
        "group": "intelsat",
        "lat": -0.009648497627419553,
        "lon": -171.4941038185406,
        "alt_km": 35785.52146638502,
        "timestamp": "2025-12-16T03:53:26.726820+00:00",
        "meta_object_name": "AZERSPACE 2 (IS-38)",
        "meta_object_id": "2018-074A",
        "meta_epoch": "2025-12-15T05:02:33.669888",
        "meta_mean_motion": 1.00271055,
        "meta_eccentricity": 0.00011938,
        "meta_inclination": 0.0024,
        "meta_ra_of_asc_node": 355.049,
        "meta_arg_of_pericenter": 276.1852,
        "meta_mean_anomaly": 293.6391,
        "meta_ephemeris_type": 0,
        "meta_classification_type": "U",
        "meta_norad_cat_id": 43632,
        "meta_element_set_no": 999,
        "meta_rev_at_epoch": 2660,
        "meta_bstar": 0,
        "meta_mean_motion_dot": 1.57e-06,
        "meta_mean_motion_ddot": 0,
        "tle_line1": "1 43632U 18074A   25349.21011192  .00000157  00000+0  00000+0 0  9999",
        "tle_line2": "2 43632   0.0024 355.0490 0001193 276.1852 293.6391  1.00271055 26605"
      },
      "geometry": {
        "type": "Point",
        "coordinates": [
          -171.4941038185406,
          -0.009648497627419553
        ]
      }
    },
    {
      "type": "Feature",
      "properties": {
        "norad_id": 43633,
        "name": "HORIZONS-3E",
        "group": "intelsat",
        "lat": 0.020430220963536652,
        "lon": -47.60924381447248,
        "alt_km": 35783.136453179046,
        "timestamp": "2025-12-16T03:53:26.726832+00:00",
        "meta_object_name": "HORIZONS-3E",
        "meta_object_id": "2018-074B",
        "meta_epoch": "2025-12-15T05:37:52.787136",
        "meta_mean_motion": 1.00269929,
        "meta_eccentricity": 9.177e-05,
        "meta_inclination": 0.0461,
        "meta_ra_of_asc_node": 189.5477,
        "meta_arg_of_pericenter": 95.4301,
        "meta_mean_anomaly": 52.6199,
        "meta_ephemeris_type": 0,
        "meta_classification_type": "U",
        "meta_norad_cat_id": 43633,
        "meta_element_set_no": 999,
        "meta_rev_at_epoch": 2649,
        "meta_bstar": 0,
        "meta_mean_motion_dot": -1e-07,
        "meta_mean_motion_ddot": 0,
        "tle_line1": "1 43633U 18074B   25349.23463874 -.00000010  00000+0  00000+0 0  9999",
        "tle_line2": "2 43633   0.0461 189.5477 0000917  95.4301  52.6199  1.00269929 26493"
      },
      "geometry": {
        "type": "Point",
        "coordinates": [
          -47.60924381447248,
          0.020430220963536652
        ]
      }
    }
  ]
}